OBJECT_NAME,OBJECT_ID,EPOCH,MEAN_MOTION,ECCENTRICITY,INCLINATION,RA_OF_ASC_NODE,ARG_OF_PERICENTER,MEAN_ANOMALY,EPHEMERIS_TYPE,CLASSIFICATION_TYPE,NORAD_CAT_ID,ELEMENT_SET_NO,REV_AT_EPOCH,BSTAR,MEAN_MOTION_DOT,MEAN_MOTION_DDOT
ONEWEB-0400,2021-132M,2026-06-17T11:08:10.114080,13.18684905,.0001884,87.9172,335.3892,97.9781,262.1564,0,U,50480,999,22164,-.16705E-3,-.53E-6,0
ONEWEB-0401,2021-132N,2026-06-17T12:13:43.264128,13.18685101,.0001653,87.9172,335.3775,89.1653,270.9668,0,U,50481,999,22165,.50239E-4,.33E-6,0
ONEWEB-0402,2021-132P,2026-06-17T11:20:18.953376,13.18685978,.00015,87.9170,335.3740,80.9745,279.1556,0,U,50482,999,22167,-.24964E-4,.3E-7,0
ONEWEB-0403,2021-132Q,2026-06-17T11:56:43.478016,13.18685021,.0001975,87.9171,335.3934,90.7160,269.4199,0,U,50483,999,22163,.13546E-3,.66E-6,0
ONEWEB-0404,2021-132R,2026-06-17T11:37:06.220128,13.11419334,.0002134,87.8889,21.0082,82.4020,277.7350,0,U,50484,999,21573,.20652E-3,.86E-6,0
ONEWEB-0405,2021-132S,2026-06-17T12:16:09.278400,13.18686502,.0002058,87.9174,335.3753,105.2832,254.8528,0,U,50485,999,22203,-.83622E-4,-.2E-6,0
ONEWEB-0406,2021-132T,2026-06-17T12:04:00.578208,13.18686073,.0002344,87.9167,335.3933,85.8437,274.2963,0,U,50486,999,22166,.12918E-3,.64E-6,0
ONEWEB-0407,2021-132U,2026-06-17T11:54:19.259136,13.18682840,.000166,87.9172,335.3869,92.5006,267.6316,0,U,50487,999,22160,.23902E-2,.955E-5,0
ONEWEB-0409,2021-132V,2026-06-17T02:25:18.687936,13.11420380,.000212,87.8893,21.0724,85.8977,274.2393,0,U,50488,999,21557,.3306E-3,.13E-5,0
ONEWEB-0412,2021-132W,2026-06-17T11:37:17.821056,13.18685398,.000163,87.9168,335.3973,86.0462,274.0856,0,U,50489,999,22169,.10665E-3,.55E-6,0
ONEWEB-0413,2021-132X,2026-06-17T11:44:36.481632,13.18686266,.0001543,87.9160,335.3952,91.1478,268.9831,0,U,50490,999,22163,.10695E-3,.55E-6,0
ONEWEB-0414,2021-132Y,2026-06-17T11:22:44.217696,13.18685338,.0001811,87.9174,335.3799,87.1237,273.0103,0,U,50491,999,22166,-.97814E-4,-.26E-6,0
ONEWEB-0417,2021-132Z,2026-06-17T11:34:52.470336,13.18685623,.0002079,87.9163,335.3978,90.7530,269.3840,0,U,50492,999,22164,.62426E-4,.38E-6,0
ONEWEB-0418,2021-132AA,2026-06-17T09:59:57.804000,13.18685094,.000215,87.9170,335.4109,91.1340,269.0038,0,U,50493,999,22169,.15381E-3,.74E-6,0
ONEWEB-0419,2021-132AB,2026-06-17T12:16:01.860096,13.18666170,.0002139,87.9171,335.3916,97.0436,263.0940,0,U,50494,999,22162,.85296E-4,.47E-6,0
ONEWEB-0420,2021-132AC,2026-06-17T11:25:09.412032,13.18686118,.0001673,87.9162,335.4014,96.7379,263.3944,0,U,50495,999,22161,.9859E-4,.52E-6,0
ONEWEB-0421,2021-132AD,2026-06-17T11:15:26.835840,13.18685004,.0001762,87.9168,335.4004,81.1363,278.9968,0,U,50496,999,22165,-.77618E-5,.1E-6,0
ONEWEB-0424,2021-132AE,2026-06-17T12:08:52.062432,13.18685678,.0002114,87.9170,335.3911,100.5367,259.6003,0,U,50497,999,22168,.80864E-4,.45E-6,0
ONEWEB-0426,2021-132AF,2026-06-17T11:09:21.722400,13.18686277,.0002218,87.9170,335.3904,76.1734,283.9644,0,U,50498,999,22162,-.68786E-3,-.258E-5,0
ONEWEB-0427,2021-132AG,2026-06-17T12:06:26.442144,13.18685234,.0002047,87.9172,335.3714,89.9758,270.1608,0,U,50499,999,22165,.18767E-3,.87E-6,0
ONEWEB-0429,2021-132AH,2026-06-17T11:47:00.849984,13.18686174,.0001755,87.9164,335.3984,94.5427,265.5906,0,U,50500,999,22162,.63933E-4,.38E-6,0
ONEWEB-0430,2021-132AJ,2026-06-17T11:30:00.731232,13.18686126,.0001821,87.9163,335.3989,101.2093,258.9244,0,U,50501,999,22166,.81988E-4,.45E-6,0
ONEWEB-0432,2021-132AK,2026-06-17T10:43:31.867104,13.17154783,.0002195,87.9169,335.3836,108.7159,251.4211,0,U,50502,999,22161,.22558E-3,.1E-5,0
ONEWEB-0440,2021-132AL,2026-06-17T11:59:09.092256,13.18685172,.0001566,87.9172,335.3912,86.9957,273.1354,0,U,50503,999,22161,.18094E-3,.84E-6,0
ONEWEB-0450,2021-132AM,2026-06-17T11:49:38.740800,13.18686307,.0001714,87.9161,335.3977,97.5369,262.5958,0,U,50504,999,22164,.1768E-3,.83E-6,0
ONEWEB-0410,2022-012A,2026-06-17T12:30:16.583328,13.17648442,.0003031,87.9142,5.7907,73.0642,287.0822,0,U,51622,999,21374,.37561E-4,.27E-6,0
ONEWEB-0411,2022-012B,2026-06-17T02:08:41.815968,13.10364400,.0001619,87.8839,36.2862,100.9710,259.1600,0,U,51623,999,20927,-.97162E-3,-.326E-5,0
ONEWEB-0415,2022-012C,2026-06-17T02:03:54.578304,13.10372494,.0001852,87.8832,36.2857,90.4147,269.7193,0,U,51624,999,20927,.1954E-2,.695E-5,0
ONEWEB-0416,2022-012D,2026-06-17T02:20:41.256672,13.10344240,.0001713,87.8799,36.2993,104.0351,256.0966,0,U,51625,999,20931,-.77297E-2,-.2684E-4,0
ONEWEB-0422,2022-012E,2026-06-17T12:44:51.666720,13.17649276,.0001194,87.9140,5.7898,88.0848,272.0420,0,U,51626,999,21385,-.61803E-4,-.11E-6,0
ONEWEB-0423,2022-012F,2026-06-17T12:35:08.382048,13.17650150,.0001904,87.9134,5.7968,84.7098,275.4251,0,U,51627,999,21374,.62013E-4,.37E-6,0
